<osm version="0.6" generator="convert-addresses.py" upload="never" locked="true">
<node id="-7544606000" lat="48.12534" lon="14.091672"><tag k="addr:country" v="AT" /><tag k="at_bev:addr_date" v="2022-04-03" /><tag k="addr:postcode" v="4621" /><tag k="addr:street" v="Schneerosenstra&#223;e" /><tag k="addr:city" v="Sipbachzell" /><tag k="addr:housenumber" v="1" /></node>
<node id="-7544607000" lat="48.125442" lon="14.091126"><tag k="addr:country" v="AT" /><tag k="at_bev:addr_date" v="2022-04-03" /><tag k="addr:postcode" v="4621" /><tag k="addr:street" v="Schneerosenstra&#223;e" /><tag k="addr:city" v="Sipbachzell" /><tag k="addr:housenumber" v="3" /></node>
<node id="-7544608001" lat="48.125475" lon="14.090848"><tag k="addr:country" v="AT" /><tag k="at_bev:addr_date" v="2022-04-03" /><tag k="addr:postcode" v="4621" /><tag k="addr:street" v="Schneerosenstra&#223;e" /><tag k="addr:city" v="Sipbachzell" /><tag k="addr:housenumber" v="5" /></node>
<bounds minlat="48.12534" minlon="14.090848" maxlat="48.125475" maxlon="14.091672" />
</osm>