<osm version="0.6" generator="convert-addresses.py" upload="never" locked="true">
<node id="-7566630001" lat="48.110723" lon="14.877602"><tag k="addr:country" v="AT" /><tag k="at_bev:addr_date" v="2022-04-03" /><tag k="addr:postcode" v="3300" /><tag k="addr:street" v="Gabriele-Possanner-Stra&#223;e" /><tag k="addr:city" v="Amstetten" /><tag k="addr:housenumber" v="1" /></node>
<node id="-7566633001" lat="48.10996" lon="14.877709"><tag k="addr:country" v="AT" /><tag k="at_bev:addr_date" v="2022-04-03" /><tag k="addr:postcode" v="3300" /><tag k="addr:street" v="Gabriele-Possanner-Stra&#223;e" /><tag k="addr:city" v="Amstetten" /><tag k="addr:housenumber" v="3" /></node>
<node id="-7600094000" lat="48.110154" lon="14.876904"><tag k="addr:country" v="AT" /><tag k="at_bev:addr_date" v="2022-04-03" /><tag k="addr:postcode" v="3300" /><tag k="addr:street" v="Gabriele-Possanner-Stra&#223;e" /><tag k="addr:city" v="Amstetten" /><tag k="addr:housenumber" v="5" /></node>
<node id="-7600095000" lat="48.109878" lon="14.876902"><tag k="addr:country" v="AT" /><tag k="at_bev:addr_date" v="2022-04-03" /><tag k="addr:postcode" v="3300" /><tag k="addr:street" v="Gabriele-Possanner-Stra&#223;e" /><tag k="addr:city" v="Amstetten" /><tag k="addr:housenumber" v="7" /></node>
<bounds minlat="48.109878" minlon="14.876902" maxlat="48.110723" maxlon="14.877709" />
</osm>