<osm version="0.6" generator="convert-addresses.py" upload="never" locked="true">
<node id="-7629626001" lat="47.27005" lon="15.989332"><tag k="addr:country" v="AT" /><tag k="at_bev:addr_date" v="2022-10-01" /><tag k="addr:postcode" v="8230" /><tag k="addr:street" v="Sonnenfeld" /><tag k="addr:city" v="Hartberg" /><tag k="addr:housenumber" v="12" /></node>
<node id="-7640206001" lat="47.270094" lon="15.988978"><tag k="addr:country" v="AT" /><tag k="at_bev:addr_date" v="2022-10-01" /><tag k="addr:postcode" v="8230" /><tag k="addr:street" v="Sonnenfeld" /><tag k="addr:city" v="Hartberg" /><tag k="addr:housenumber" v="10" /></node>
<node id="-7641634001" lat="47.26997" lon="15.989664"><tag k="addr:country" v="AT" /><tag k="at_bev:addr_date" v="2022-10-01" /><tag k="addr:postcode" v="8230" /><tag k="addr:street" v="Sonnenfeld" /><tag k="addr:city" v="Hartberg" /><tag k="addr:housenumber" v="14" /></node>
<bounds minlat="47.26997" minlon="15.988978" maxlat="47.270094" maxlon="15.989664" />
</osm>