<osm version="0.6" generator="convert-addresses.py" upload="never" locked="true">
<node id="-6172152001" lat="46.831003" lon="14.81219"><tag k="addr:country" v="AT" /><tag k="at_bev:addr_date" v="2022-04-03" /><tag k="addr:postcode" v="9411" /><tag k="addr:street" v="Sandweg" /><tag k="addr:city" v="Wolfsberg" /><tag k="addr:housenumber" v="7" /></node>
<node id="-6172153001" lat="46.831021" lon="14.812438"><tag k="addr:country" v="AT" /><tag k="at_bev:addr_date" v="2022-04-03" /><tag k="addr:postcode" v="9411" /><tag k="addr:street" v="Sandweg" /><tag k="addr:city" v="Wolfsberg" /><tag k="addr:housenumber" v="7a" /></node>
<node id="-6172155001" lat="46.830029" lon="14.811873"><tag k="addr:country" v="AT" /><tag k="at_bev:addr_date" v="2022-04-03" /><tag k="addr:postcode" v="9411" /><tag k="addr:street" v="Sandweg" /><tag k="addr:city" v="Wolfsberg" /><tag k="addr:housenumber" v="1" /></node>
<node id="-6172190001" lat="46.830637" lon="14.812165"><tag k="addr:country" v="AT" /><tag k="at_bev:addr_date" v="2022-04-03" /><tag k="addr:postcode" v="9411" /><tag k="addr:street" v="Sandweg" /><tag k="addr:city" v="Wolfsberg" /><tag k="addr:housenumber" v="5" /></node>
<bounds minlat="46.830029" minlon="14.811873" maxlat="46.831021" maxlon="14.812438" />
</osm>