<osm version="0.6" generator="convert-addresses.py" upload="never" locked="true">
<node id="-7698328001" lat="47.844483" lon="16.531103"><tag k="addr:country" v="AT" /><tag k="at_bev:addr_date" v="2025-04-01" /><tag k="addr:postcode" v="7000" /><tag k="addr:street" v="Sepp Laubner-Stra&#223;e" /><tag k="addr:city" v="Eisenstadt" /><tag k="addr:housenumber" v="1" /></node>
<node id="-7698451001" lat="47.84403" lon="16.53128"><tag k="addr:country" v="AT" /><tag k="at_bev:addr_date" v="2025-04-01" /><tag k="addr:postcode" v="7000" /><tag k="addr:street" v="Sepp Laubner-Stra&#223;e" /><tag k="addr:city" v="Eisenstadt" /><tag k="addr:housenumber" v="2a" /></node>
<node id="-7698452001" lat="47.843601" lon="16.531682"><tag k="addr:country" v="AT" /><tag k="at_bev:addr_date" v="2025-04-01" /><tag k="addr:postcode" v="7000" /><tag k="addr:street" v="Sepp Laubner-Stra&#223;e" /><tag k="addr:city" v="Eisenstadt" /><tag k="addr:housenumber" v="2b" /></node>
<node id="-7698453001" lat="47.844134" lon="16.531886"><tag k="addr:country" v="AT" /><tag k="at_bev:addr_date" v="2025-04-01" /><tag k="addr:postcode" v="7000" /><tag k="addr:street" v="Sepp Laubner-Stra&#223;e" /><tag k="addr:city" v="Eisenstadt" /><tag k="addr:housenumber" v="4" /></node>
<bounds minlat="47.843601" minlon="16.531103" maxlat="47.844483" maxlon="16.531886" />
</osm>