<osm version="0.6" generator="convert-addresses.py" upload="never" locked="true">
<node id="-6324433001" lat="48.499583" lon="16.674255"><tag k="addr:country" v="AT" /><tag k="at_bev:addr_date" v="2025-10-01" /><tag k="addr:postcode" v="2224" /><tag k="addr:street" v="Am Anger" /><tag k="addr:city" v="Sulz im Weinviertel" /><tag k="addr:housenumber" v="1" /></node>
<node id="-6324499001" lat="48.499427" lon="16.672046"><tag k="addr:country" v="AT" /><tag k="at_bev:addr_date" v="2025-10-01" /><tag k="addr:postcode" v="2224" /><tag k="addr:street" v="Am Anger" /><tag k="addr:city" v="Sulz im Weinviertel" /><tag k="addr:housenumber" v="4" /></node>
<node id="-6324516001" lat="48.499359" lon="16.67484"><tag k="addr:country" v="AT" /><tag k="at_bev:addr_date" v="2025-10-01" /><tag k="addr:postcode" v="2224" /><tag k="addr:street" v="Am Anger" /><tag k="addr:city" v="Sulz im Weinviertel" /><tag k="addr:housenumber" v="12" /></node>
<node id="-6324531001" lat="48.499325" lon="16.673997"><tag k="addr:country" v="AT" /><tag k="at_bev:addr_date" v="2025-10-01" /><tag k="addr:postcode" v="2224" /><tag k="addr:street" v="Am Anger" /><tag k="addr:city" v="Sulz im Weinviertel" /><tag k="addr:housenumber" v="23" /></node>
<node id="-6324532001" lat="48.49922" lon="16.672067"><tag k="addr:country" v="AT" /><tag k="at_bev:addr_date" v="2025-10-01" /><tag k="addr:postcode" v="2224" /><tag k="addr:street" v="Am Anger" /><tag k="addr:city" v="Sulz im Weinviertel" /><tag k="addr:housenumber" v="6" /></node>
<node id="-6324556001" lat="48.499407" lon="16.672884"><tag k="addr:country" v="AT" /><tag k="at_bev:addr_date" v="2025-10-01" /><tag k="addr:postcode" v="2224" /><tag k="addr:street" v="Am Anger" /><tag k="addr:city" v="Sulz im Weinviertel" /><tag k="addr:housenumber" v="2" /></node>
<node id="-6324557001" lat="48.499131" lon="16.673931"><tag k="addr:country" v="AT" /><tag k="at_bev:addr_date" v="2025-10-01" /><tag k="addr:postcode" v="2224" /><tag k="addr:street" v="Am Anger" /><tag k="addr:city" v="Sulz im Weinviertel" /><tag k="addr:housenumber" v="10" /></node>
<node id="-6324563001" lat="48.499447" lon="16.67436"><tag k="addr:country" v="AT" /><tag k="at_bev:addr_date" v="2025-10-01" /><tag k="addr:postcode" v="2224" /><tag k="addr:street" v="Am Anger" /><tag k="addr:city" v="Sulz im Weinviertel" /><tag k="addr:housenumber" v="25" /></node>
<node id="-6324564001" lat="48.499253" lon="16.673655"><tag k="addr:country" v="AT" /><tag k="at_bev:addr_date" v="2025-10-01" /><tag k="addr:postcode" v="2224" /><tag k="addr:street" v="Am Anger" /><tag k="addr:city" v="Sulz im Weinviertel" /><tag k="addr:housenumber" v="21" /></node>
<node id="-6324565001" lat="48.499511" lon="16.673571"><tag k="addr:country" v="AT" /><tag k="at_bev:addr_date" v="2025-10-01" /><tag k="addr:postcode" v="2224" /><tag k="addr:street" v="Am Anger" /><tag k="addr:city" v="Sulz im Weinviertel" /><tag k="addr:housenumber" v="5" /></node>
<node id="-6324566001" lat="48.499378" lon="16.673264"><tag k="addr:country" v="AT" /><tag k="at_bev:addr_date" v="2025-10-01" /><tag k="addr:postcode" v="2224" /><tag k="addr:street" v="Am Anger" /><tag k="addr:city" v="Sulz im Weinviertel" /><tag k="addr:housenumber" v="7" /></node>
<node id="-6324567001" lat="48.499296" lon="16.673002"><tag k="addr:country" v="AT" /><tag k="at_bev:addr_date" v="2025-10-01" /><tag k="addr:postcode" v="2224" /><tag k="addr:street" v="Am Anger" /><tag k="addr:city" v="Sulz im Weinviertel" /><tag k="addr:housenumber" v="9" /></node>
<node id="-6324570001" lat="48.499232" lon="16.672764"><tag k="addr:country" v="AT" /><tag k="at_bev:addr_date" v="2025-10-01" /><tag k="addr:postcode" v="2224" /><tag k="addr:street" v="Am Anger" /><tag k="addr:city" v="Sulz im Weinviertel" /><tag k="addr:housenumber" v="11" /></node>
<bounds minlat="48.499131" minlon="16.672046" maxlat="48.499583" maxlon="16.67484" />
</osm>