<osm version="0.6" generator="convert-addresses.py" upload="never" locked="true">
<node id="-7621508000" lat="48.179741" lon="16.34575"><tag k="addr:country" v="AT" /><tag k="at_bev:addr_date" v="2022-04-03" /><tag k="addr:postcode" v="1120" /><tag k="addr:street" v="Susi-Weigel-Weg" /><tag k="addr:suburb" v="Meidling" /><tag k="addr:city" v="Wien" /><tag k="addr:housenumber" v="1" /></node>
<node id="-7621510000" lat="48.179626" lon="16.345427"><tag k="addr:country" v="AT" /><tag k="at_bev:addr_date" v="2022-04-03" /><tag k="addr:postcode" v="1120" /><tag k="addr:street" v="Susi-Weigel-Weg" /><tag k="addr:suburb" v="Meidling" /><tag k="addr:city" v="Wien" /><tag k="addr:housenumber" v="3" /></node>
<node id="-7621511000" lat="48.179592" lon="16.345325"><tag k="addr:country" v="AT" /><tag k="at_bev:addr_date" v="2022-04-03" /><tag k="addr:postcode" v="1120" /><tag k="addr:street" v="Susi-Weigel-Weg" /><tag k="addr:suburb" v="Meidling" /><tag k="addr:city" v="Wien" /><tag k="addr:housenumber" v="5" /></node>
<bounds minlat="48.179592" minlon="16.345325" maxlat="48.179741" maxlon="16.34575" />
</osm>